[
    {
        "Altitude(m)": 610399.5756537745,
        "Argument of Periapsis(deg)": 0.0,
        "Eccentricity": 0.0,
        "Inclination(deg)": 60.0,
        "Latitude(deg)": 52.111464097991316,
        "Longitude(deg)": 112.58432924302382,
        "Mean Anomaly(deg)": 65.45450000000001,
        "RAAN(deg)": 165.0,
        "Satellite Name": "Test1 730",
        "Satellite Number": 730,
        "Semi-Major Axis(m)": 6980739.136638005,
        "Time(s)": 0
    },
    {
        "Altitude(m)": 610481.7264935168,
        "Argument of Periapsis(deg)": 0.00010418945913296404,
        "Eccentricity": 0.0,
        "Inclination(deg)": 60.0,
        "Latitude(deg)": 52.471066080157065,
        "Longitude(deg)": 113.36646805106342,
        "Mean Anomaly(deg)": 66.07460614546181,
        "RAAN(deg)": 164.99957995086024,
        "Satellite Name": "Test1 730",
        "Satellite Number": 730,
        "Semi-Major Axis(m)": 6980739.136638005,
        "Time(s)": 10
    }
]